start=new Date('2023-01-04T00:00:00.000Z').valueOf();
sats=[{"OBJECT_ID":"2022-111X","OBJECT_TYPE":"PAYLOAD","DECAY_DATE":null,"INCLINATION":"53.2184","MEAN_ANOMALY":"331.4312","MEAN_MOTION":"15.08837793","GP_ID":"222114943","REV_AT_EPOCH":"1839","PERIAPSIS":"538.032","SEMIMAJOR_AXIS":"6917.887","NORAD_CAT_ID":"53794","SITE":"AFETR","BSTAR":"0.00003891100000","MEAN_ELEMENT_THEORY":"SGP4","TIME_SYSTEM":"UTC","TLE_LINE1":"1 53794U 22111X   23003.52849726  .00000331  00000-0  38911-4 0  9999","ECCENTRICITY":"0.00024870","COUNTRY_CODE":"US","APOAPSIS":"541.473","OBJECT_NAME":"STARLINK-4730","EPHEMERIS_TYPE":"0","MEAN_MOTION_DOT":"0.00000331","RCS_SIZE":"LARGE","CENTER_NAME":"EARTH","FILE":"3730926","ARG_OF_PERICENTER":"28.6816","MEAN_MOTION_DDOT":"0.0000000000000","REF_FRAME":"TEME","ELEMENT_SET_NO":"999","EPOCH":"2023-01-03T12:41:02.163264","RA_OF_ASC_NODE":"86.5287","TLE_LINE2":"2 53794  53.2184  86.5287 0002487  28.6816 331.4312 15.08837793 18390","PERIOD":"95.438","CLASSIFICATION_TYPE":"U","LAUNCH_DATE":"2022-09-11"},{"CLASSIFICATION_TYPE":"U","LAUNCH_DATE":"2022-09-11","PERIOD":"95.438","TLE_LINE2":"2 53795  53.2175  85.8904 0002414  33.0584 327.0559 15.08825271 17617","RA_OF_ASC_NODE":"85.8904","EPOCH":"2023-01-03T15:41:11.539392","REF_FRAME":"TEME","ELEMENT_SET_NO":"999","MEAN_MOTION_DDOT":"0.0000000000000","ARG_OF_PERICENTER":"33.0584","FILE":"3730909","CENTER_NAME":"EARTH","RCS_SIZE":"LARGE","OBJECT_NAME":"STARLINK-4742","EPHEMERIS_TYPE":"0","MEAN_MOTION_DOT":"0.00002103","APOAPSIS":"541.460","COUNTRY_CODE":"US","ECCENTRICITY":"0.00024140","TIME_SYSTEM":"UTC","TLE_LINE1":"1 53795U 22111Y   23003.65360578  .00002103  00000-0  15027-3 0  9998","MEAN_ELEMENT_THEORY":"SGP4","BSTAR":"0.00015027000000","NORAD_CAT_ID":"53795","SITE":"AFETR","SEMIMAJOR_AXIS":"6917.925","REV_AT_EPOCH":"1761","GP_ID":"222089610","PERIAPSIS":"538.120","MEAN_MOTION":"15.08825271","MEAN_ANOMALY":"327.0559","DECAY_DATE":null,"INCLINATION":"53.2175","OBJECT_TYPE":"PAYLOAD","OBJECT_ID":"2022-111Y"},{"LAUNCH_DATE":"2022-09-11","CLASSIFICATION_TYPE":"U","PERIOD":"95.439","TLE_LINE2":"2 53796  53.2177  66.7359 0001886  53.2979 306.8186 15.08824815 18699","RA_OF_ASC_NODE":"66.7359","EPOCH":"2023-01-03T11:02:58.109856","ELEMENT_SET_NO":"999","REF_FRAME":"TEME","MEAN_MOTION_DDOT":"0.0000000000000","ARG_OF_PERICENTER":"53.2979","CENTER_NAME":"EARTH","FILE":"3730926","RCS_SIZE":"LARGE","EPHEMERIS_TYPE":"0","MEAN_MOTION_DOT":"0.00000643","OBJECT_NAME":"STARLINK-4721","APOAPSIS":"541.097","COUNTRY_CODE":"US","ECCENTRICITY":"0.00018860","TLE_LINE1":"1 53796U 22111Z   23003.46039479  .00000643  00000-0  58531-4 0  9996","TIME_SYSTEM":"UTC","MEAN_ELEMENT_THEORY":"SGP4","BSTAR":"0.00005853100000","SITE":"AFETR","NORAD_CAT_ID":"53796","SEMIMAJOR_AXIS":"6917.927","PERIAPSIS":"538.487","GP_ID":"222116295","REV_AT_EPOCH":"1869","MEAN_MOTION":"15.08824815","MEAN_ANOMALY":"306.8186","DECAY_DATE":null,"INCLINATION":"53.2177","OBJECT_TYPE":"PAYLOAD","OBJECT_ID":"2022-111Z"},{"CLASSIFICATION_TYPE":"U","LAUNCH_DATE":"2022-09-11","TLE_LINE2":"2 53797  53.2169  86.4117 0002239  28.0741 332.0372 15.08848447 17595","PERIOD":"95.437","EPOCH":"2023-01-03T12:14:30.111936","RA_OF_ASC_NODE":"86.4117","REF_FRAME":"TEME","ELEMENT_SET_NO":"999","CENTER_NAME":"EARTH","FILE":"3730900","MEAN_MOTION_DDOT":"0.0000000000000","ARG_OF_PERICENTER":"28.0741","RCS_SIZE":"LARGE","APOAPSIS":"541.268","OBJECT_NAME":"STARLINK-4723","MEAN_MOTION_DOT":"0.00007419","EPHEMERIS_TYPE":"0","ECCENTRICITY":"0.00022390","COUNTRY_CODE":"US","TIME_SYSTEM":"UTC","TLE_LINE1":"1 53797U 22111AA  23003.51007074  .00007419  00000-0  48361-3 0  9996","BSTAR":"0.00048361000000","MEAN_ELEMENT_THEORY":"SGP4","NORAD_CAT_ID":"53797","SITE":"AFETR","SEMIMAJOR_AXIS":"6917.855","MEAN_MOTION":"15.08848447","PERIAPSIS":"538.171","GP_ID":"222089293","REV_AT_EPOCH":"1759","MEAN_ANOMALY":"332.0372","DECAY_DATE":null,"INCLINATION":"53.2169","OBJECT_ID":"2022-111AA","OBJECT_TYPE":"PAYLOAD"},{"RA_OF_ASC_NODE":"86.4360","EPOCH":"2023-01-03T12:19:49.728000","REF_FRAME":"TEME","ELEMENT_SET_NO":"999","CLASSIFICATION_TYPE":"U","LAUNCH_DATE":"2022-09-11","PERIOD":"95.439","TLE_LINE2":"2 53798  53.2182  86.4360 0001813  49.8657 310.2494 15.08824348 18380","OBJECT_NAME":"STARLINK-4712","MEAN_MOTION_DOT":"0.00000604","EPHEMERIS_TYPE":"0","APOAPSIS":"541.047","COUNTRY_CODE":"US","ECCENTRICITY":"0.00018130","MEAN_MOTION_DDOT":"0.0000000000000","ARG_OF_PERICENTER":"49.8657","CENTER_NAME":"EARTH","FILE":"3730926","RCS_SIZE":"LARGE","NORAD_CAT_ID":"53798","SITE":"AFETR","SEMIMAJOR_AXIS":"6917.928","TIME_SYSTEM":"UTC","TLE_LINE1":"1 53798U 22111AB  23003.51377000  .00000604  00000-0  56083-4 0  9996","MEAN_ELEMENT_THEORY":"SGP4","BSTAR":"0.00005608300000","INCLINATION":"53.2182","DECAY_DATE":null,"OBJECT_TYPE":"PAYLOAD","OBJECT_ID":"2022-111AB","GP_ID":"222115418","PERIAPSIS":"538.539","REV_AT_EPOCH":"1838","MEAN_MOTION":"15.08824348","MEAN_ANOMALY":"310.2494"},{"MEAN_MOTION_DDOT":"0.0000000000000","ARG_OF_PERICENTER":"54.7982","FILE":"3730926","CENTER_NAME":"EARTH","RCS_SIZE":"LARGE","EPHEMERIS_TYPE":"0","MEAN_MOTION_DOT":"0.00003172","OBJECT_NAME":"STARLINK-4710","APOAPSIS":"540.954","COUNTRY_CODE":"US","ECCENTRICITY":"0.00017270","CLASSIFICATION_TYPE":"U","LAUNCH_DATE":"2022-09-11","PERIOD":"95.438","TLE_LINE2":"2 53799  53.2180  76.9228 0001727  54.7982 305.3171 15.08835554 18519","RA_OF_ASC_NODE":"76.9228","EPOCH":"2023-01-03T11:22:53.844384","ELEMENT_SET_NO":"999","REF_FRAME":"TEME","PERIAPSIS":"538.564","GP_ID":"222115643","REV_AT_EPOCH":"1851","MEAN_MOTION":"15.08835554","MEAN_ANOMALY":"305.3171","INCLINATION":"53.2180","DECAY_DATE":null,"OBJECT_TYPE":"PAYLOAD","OBJECT_ID":"2022-111AC","TLE_LINE1":"1 53799U 22111AC  23003.47423431  .00003172  00000-0  21732-3 0  9997","TIME_SYSTEM":"UTC","MEAN_ELEMENT_THEORY":"SGP4","BSTAR":"0.00021732000000","SITE":"AFETR","NORAD_CAT_ID":"53799","SEMIMAJOR_AXIS":"6917.894"},{"RA_OF_ASC_NODE":"76.3506","EPOCH":"2023-01-03T14:38:58.839072","ELEMENT_SET_NO":"999","REF_FRAME":"TEME","CLASSIFICATION_TYPE":"U","LAUNCH_DATE":"2022-09-11","PERIOD":"95.439","TLE_LINE2":"2 53800  53.2185  76.3506 0002259  36.7171 323.3975 15.08820722 17726","MEAN_MOTION_DOT":"0.00000669","EPHEMERIS_TYPE":"0","OBJECT_NAME":"STARLINK-4720","APOAPSIS":"541.367","COUNTRY_CODE":"US","ECCENTRICITY":"0.00022590","ARG_OF_PERICENTER":"36.7171","MEAN_MOTION_DDOT":"0.0000000000000","CENTER_NAME":"EARTH","FILE":"3730642","RCS_SIZE":"LARGE","SITE":"AFETR","NORAD_CAT_ID":"53800","SEMIMAJOR_AXIS":"6917.939","TLE_LINE1":"1 53800U 22111AD  23003.61040323  .00000669  00000-0  60167-4 0  9995","TIME_SYSTEM":"UTC","MEAN_ELEMENT_THEORY":"SGP4","BSTAR":"0.00006016700000","INCLINATION":"53.2185","DECAY_DATE":null,"OBJECT_TYPE":"PAYLOAD","OBJECT_ID":"2022-111AD","PERIAPSIS":"538.242","GP_ID":"222084193","REV_AT_EPOCH":"1772","MEAN_MOTION":"15.08820722","MEAN_ANOMALY":"323.3975"},{"BSTAR":"0.00022497000000","MEAN_ELEMENT_THEORY":"SGP4","TIME_SYSTEM":"UTC","TLE_LINE1":"1 53801U 22111AE  23003.59934199  .00003293  00000-0  22497-3 0  9995","SEMIMAJOR_AXIS":"6917.920","NORAD_CAT_ID":"53801","SITE":"AFETR","MEAN_ANOMALY":"306.7652","MEAN_MOTION":"15.08826920","PERIAPSIS":"538.575","GP_ID":"222083690","REV_AT_EPOCH":"1772","OBJECT_ID":"2022-111AE","OBJECT_TYPE":"PAYLOAD","DECAY_DATE":null,"INCLINATION":"53.2184","TLE_LINE2":"2 53801  53.2184  76.2813 0001750  53.3501 306.7652 15.08826920 17726","PERIOD":"95.438","CLASSIFICATION_TYPE":"U","LAUNCH_DATE":"2022-09-11","REF_FRAME":"TEME","ELEMENT_SET_NO":"999","RA_OF_ASC_NODE":"76.2813","EPOCH":"2023-01-03T14:23:03.147936","RCS_SIZE":"LARGE","CENTER_NAME":"EARTH","FILE":"3730628","ARG_OF_PERICENTER":"53.3501","MEAN_MOTION_DDOT":"0.0000000000000","ECCENTRICITY":"0.00017500","COUNTRY_CODE":"US","APOAPSIS":"540.996","OBJECT_NAME":"STARLINK-4715","MEAN_MOTION_DOT":"0.00003293","EPHEMERIS_TYPE":"0"},{"PERIOD":"95.438","TLE_LINE2":"2 53802  53.2188  76.8971 0001961  36.3736 323.7389 15.08840378 18514","LAUNCH_DATE":"2022-09-11","CLASSIFICATION_TYPE":"U","REF_FRAME":"TEME","ELEMENT_SET_NO":"999","RA_OF_ASC_NODE":"76.8971","EPOCH":"2023-01-03T11:17:35.505312","RCS_SIZE":"LARGE","ARG_OF_PERICENTER":"36.3736","MEAN_MOTION_DDOT":"0.0000000000000","CENTER_NAME":"EARTH","FILE":"3730926","COUNTRY_CODE":"US","ECCENTRICITY":"0.00019610","OBJECT_NAME":"STARLINK-4726","MEAN_MOTION_DOT":"0.00006886","EPHEMERIS_TYPE":"0","APOAPSIS":"541.101","MEAN_ELEMENT_THEORY":"SGP4","BSTAR":"0.00045030000000","TIME_SYSTEM":"UTC","TLE_LINE1":"1 53802U 22111AF  23003.47054983  .00006886  00000-0  45030-3 0  9996","SEMIMAJOR_AXIS":"6917.879","NORAD_CAT_ID":"53802","SITE":"AFETR","MEAN_ANOMALY":"323.7389","GP_ID":"222114944","PERIAPSIS":"538.388","REV_AT_EPOCH":"1851","MEAN_MOTION":"15.08840378","OBJECT_TYPE":"PAYLOAD","OBJECT_ID":"2022-111AF","INCLINATION":"53.2188","DECAY_DATE":null},{"MEAN_MOTION":"15.33955571","GP_ID":"222115170","PERIAPSIS":"462.985","REV_AT_EPOCH":"130","MEAN_ANOMALY":"282.9137","INCLINATION":"53.2170","DECAY_DATE":null,"OBJECT_ID":"2022-111AG","OBJECT_TYPE":"PAYLOAD","TIME_SYSTEM":"UTC","TLE_LINE1":"1 53803U 22111AG  23003.58334491 -.01140531  00000-0 -37531-1 0  9998","BSTAR":"-0.03753100000000","MEAN_ELEMENT_THEORY":"SGP4","NORAD_CAT_ID":"53803","SITE":"AFETR","SEMIMAJOR_AXIS":"6842.161","CENTER_NAME":"EARTH","FILE":"3730926","ARG_OF_PERICENTER":"41.7657","MEAN_MOTION_DDOT":"0.0000000000000","RCS_SIZE":"LARGE","APOAPSIS":"465.068","OBJECT_NAME":"STARLINK-4727","MEAN_MOTION_DOT":"-0.01140531","EPHEMERIS_TYPE":"0","ECCENTRICITY":"0.00015220","COUNTRY_CODE":"US","CLASSIFICATION_TYPE":"U","LAUNCH_DATE":"2022-09-11","TLE_LINE2":"2 53803  53.2170  62.6757 0001522  41.7657 282.9137 15.33955571  1302","PERIOD":"93.875","EPOCH":"2023-01-03T14:00:01.000224","RA_OF_ASC_NODE":"62.6757","REF_FRAME":"TEME","ELEMENT_SET_NO":"999"}];
